<?xml version="1.0" encoding="UTF-8" standalone="no" ?><gpx xmlns="http://www.topografix.com/GPX/1/1" xmlns:xsi="http://www.w3.org/2001/XMLSchema-instance" creator="GraphHopper" version="1.1" xmlns:gh="https://graphhopper.com/public/schema/gpx/1.1">
<metadata><copyright author="OpenStreetMap contributors"/><link href="http://graphhopper.com"><text>GraphHopper GPX</text></link><time>2026-09-13T11:35:25.790Z</time></metadata>
<trk>
<name>GraphHopper Track</name><desc></desc>
<trkseg><trkpt lat="-7.767760" lon="110.374272"><ele>142.0</ele></trkpt>
<trkpt lat="-7.770569" lon="110.373265"><ele>135.6</ele></trkpt>
<trkpt lat="-7.770598" lon="110.373238"><ele>135.5</ele></trkpt>
<trkpt lat="-7.770642" lon="110.373231"><ele>135.4</ele></trkpt>
<trkpt lat="-7.770699" lon="110.373241"><ele>135.4</ele></trkpt>
<trkpt lat="-7.770757" lon="110.373272"><ele>135.4</ele></trkpt>
<trkpt lat="-7.770807" lon="110.373315"><ele>135.3</ele></trkpt>
<trkpt lat="-7.770846" lon="110.373376"><ele>135.4</ele></trkpt>
<trkpt lat="-7.771155" lon="110.374389"><ele>135.3</ele></trkpt>
<trkpt lat="-7.771154" lon="110.374416"><ele>135.4</ele></trkpt>
<trkpt lat="-7.771337" lon="110.375026"><ele>136.0</ele></trkpt>
<trkpt lat="-7.771351" lon="110.375036"><ele>136.0</ele></trkpt>
<trkpt lat="-7.771538" lon="110.375652"><ele>136.2</ele></trkpt>
<trkpt lat="-7.771534" lon="110.375674"><ele>136.2</ele></trkpt>
<trkpt lat="-7.771682" lon="110.376169"><ele>136.0</ele></trkpt>
<trkpt lat="-7.773208" lon="110.375532"><ele>134.5</ele></trkpt>
<trkpt lat="-7.775288" lon="110.374675"><ele>133.0</ele></trkpt>
<trkpt lat="-7.775352" lon="110.374677"><ele>132.8</ele></trkpt>
<trkpt lat="-7.775775" lon="110.374504"><ele>132.1</ele></trkpt>
<trkpt lat="-7.775896" lon="110.374453"><ele>132.1</ele></trkpt>
<trkpt lat="-7.775938" lon="110.374407"><ele>132.2</ele></trkpt>
<trkpt lat="-7.776085" lon="110.374348"><ele>132.3</ele></trkpt>
<trkpt lat="-7.776119" lon="110.374504"><ele>132.3</ele></trkpt>
<trkpt lat="-7.776148" lon="110.374727"><ele>132.8</ele></trkpt>
<trkpt lat="-7.776160" lon="110.374924"><ele>132.7</ele></trkpt>
<trkpt lat="-7.776170" lon="110.375697"><ele>131.4</ele></trkpt>
<trkpt lat="-7.776027" lon="110.375890"><ele>131.2</ele></trkpt>
<trkpt lat="-7.775945" lon="110.375901"><ele>131.4</ele></trkpt>
<trkpt lat="-7.775898" lon="110.375930"><ele>131.6</ele></trkpt>
<trkpt lat="-7.775861" lon="110.375973"><ele>131.7</ele></trkpt>
<trkpt lat="-7.775846" lon="110.376002"><ele>131.7</ele></trkpt>
<trkpt lat="-7.775833" lon="110.376075"><ele>131.8</ele></trkpt>
<trkpt lat="-7.775843" lon="110.376125"><ele>131.7</ele></trkpt>
<trkpt lat="-7.775873" lon="110.376179"><ele>131.6</ele></trkpt>
<trkpt lat="-7.775919" lon="110.376220"><ele>131.5</ele></trkpt>
<trkpt lat="-7.775951" lon="110.376237"><ele>131.4</ele></trkpt>
<trkpt lat="-7.776038" lon="110.376244"><ele>131.2</ele></trkpt>
<trkpt lat="-7.776070" lon="110.376238"><ele>131.1</ele></trkpt>
<trkpt lat="-7.776109" lon="110.376217"><ele>131.0</ele></trkpt>
<trkpt lat="-7.776160" lon="110.376164"><ele>130.8</ele></trkpt>
<trkpt lat="-7.776187" lon="110.376089"><ele>130.8</ele></trkpt>
<trkpt lat="-7.777037" lon="110.375967"><ele>130.6</ele></trkpt>
<trkpt lat="-7.779720" lon="110.375537"><ele>127.5</ele></trkpt>
<trkpt lat="-7.782665" lon="110.375039"><ele>124.1</ele></trkpt>
<trkpt lat="-7.783209" lon="110.374960"><ele>125.3</ele></trkpt>
<trkpt lat="-7.784687" lon="110.374717"><ele>123.1</ele></trkpt>
<trkpt lat="-7.786717" lon="110.374368"><ele>120.1</ele></trkpt>
<trkpt lat="-7.786804" lon="110.374353"><ele>119.9</ele></trkpt>
<trkpt lat="-7.786841" lon="110.374355"><ele>119.7</ele></trkpt>
<trkpt lat="-7.786895" lon="110.374393"><ele>119.5</ele></trkpt>
<trkpt lat="-7.786927" lon="110.374443"><ele>119.3</ele></trkpt>
<trkpt lat="-7.786991" lon="110.374636"><ele>119.5</ele></trkpt>
<trkpt lat="-7.787073" lon="110.374825"><ele>119.8</ele></trkpt>
<trkpt lat="-7.787122" lon="110.374914"><ele>119.9</ele></trkpt>
<trkpt lat="-7.787186" lon="110.375009"><ele>120.1</ele></trkpt>
<trkpt lat="-7.787312" lon="110.375171"><ele>120.3</ele></trkpt>
<trkpt lat="-7.787377" lon="110.375224"><ele>120.0</ele></trkpt>
<trkpt lat="-7.787444" lon="110.375251"><ele>119.7</ele></trkpt>
<trkpt lat="-7.787525" lon="110.375258"><ele>119.4</ele></trkpt>
<trkpt lat="-7.787614" lon="110.375246"><ele>118.9</ele></trkpt>
<trkpt lat="-7.787667" lon="110.375232"><ele>118.6</ele></trkpt>
<trkpt lat="-7.788351" lon="110.374864"><ele>118.4</ele></trkpt>
<trkpt lat="-7.788387" lon="110.374832"><ele>118.3</ele></trkpt>
<trkpt lat="-7.788459" lon="110.374730"><ele>118.3</ele></trkpt>
<trkpt lat="-7.788496" lon="110.374664"><ele>118.4</ele></trkpt>
<trkpt lat="-7.788546" lon="110.374532"><ele>118.2</ele></trkpt>
<trkpt lat="-7.788561" lon="110.374461"><ele>118.1</ele></trkpt>
<trkpt lat="-7.788576" lon="110.374293"><ele>118.0</ele></trkpt>
<trkpt lat="-7.788563" lon="110.374057"><ele>117.5</ele></trkpt>
<trkpt lat="-7.788553" lon="110.373975"><ele>117.5</ele></trkpt>
<trkpt lat="-7.788429" lon="110.373581"><ele>117.9</ele></trkpt>
<trkpt lat="-7.788374" lon="110.373446"><ele>118.0</ele></trkpt>
<trkpt lat="-7.788342" lon="110.373390"><ele>118.2</ele></trkpt>
<trkpt lat="-7.788305" lon="110.373343"><ele>118.2</ele></trkpt>
<trkpt lat="-7.788218" lon="110.373272"><ele>118.4</ele></trkpt>
<trkpt lat="-7.788162" lon="110.373243"><ele>118.5</ele></trkpt>
<trkpt lat="-7.788040" lon="110.373213"><ele>118.6</ele></trkpt>
<trkpt lat="-7.787975" lon="110.373185"><ele>119.0</ele></trkpt>
<trkpt lat="-7.787951" lon="110.373162"><ele>119.2</ele></trkpt>
<trkpt lat="-7.787918" lon="110.373098"><ele>119.6</ele></trkpt>
<trkpt lat="-7.787908" lon="110.373004"><ele>119.9</ele></trkpt>
<trkpt lat="-7.787926" lon="110.372709"><ele>119.9</ele></trkpt>
<trkpt lat="-7.787952" lon="110.372534"><ele>119.5</ele></trkpt>
<trkpt lat="-7.787983" lon="110.372377"><ele>119.3</ele></trkpt>
<trkpt lat="-7.788036" lon="110.372206"><ele>119.3</ele></trkpt>
<trkpt lat="-7.788132" lon="110.371953"><ele>118.9</ele></trkpt>
<trkpt lat="-7.788245" lon="110.371723"><ele>119.3</ele></trkpt>
<trkpt lat="-7.788343" lon="110.371558"><ele>119.9</ele></trkpt>
<trkpt lat="-7.789316" lon="110.370137"><ele>118.6</ele></trkpt>
<trkpt lat="-7.789464" lon="110.369918"><ele>116.7</ele></trkpt>
<trkpt lat="-7.789492" lon="110.369867"><ele>116.3</ele></trkpt>
<trkpt lat="-7.789515" lon="110.369814"><ele>115.8</ele></trkpt>
<trkpt lat="-7.789549" lon="110.369689"><ele>114.5</ele></trkpt>
<trkpt lat="-7.789588" lon="110.369374"><ele>111.0</ele></trkpt>
<trkpt lat="-7.789630" lon="110.369231"><ele>109.7</ele></trkpt>
<trkpt lat="-7.789662" lon="110.369175"><ele>109.1</ele></trkpt>
<trkpt lat="-7.789794" lon="110.369062"><ele>108.1</ele></trkpt>
<trkpt lat="-7.789821" lon="110.369021"><ele>107.8</ele></trkpt>
<trkpt lat="-7.789816" lon="110.368995"><ele>107.6</ele></trkpt>
<trkpt lat="-7.789759" lon="110.368927"><ele>107.2</ele></trkpt>
<trkpt lat="-7.789711" lon="110.368625"><ele>107.8</ele></trkpt>
<trkpt lat="-7.789704" lon="110.368582"><ele>108.2</ele></trkpt>
<trkpt lat="-7.789710" lon="110.368557"><ele>108.5</ele></trkpt>
<trkpt lat="-7.789732" lon="110.368542"><ele>108.7</ele></trkpt>
<trkpt lat="-7.789946" lon="110.368507"><ele>109.8</ele></trkpt>
<trkpt lat="-7.790055" lon="110.368471"><ele>110.6</ele></trkpt>
<trkpt lat="-7.790220" lon="110.368402"><ele>111.0</ele></trkpt>
<trkpt lat="-7.790324" lon="110.368350"><ele>111.3</ele></trkpt>
<trkpt lat="-7.790346" lon="110.368331"><ele>111.4</ele></trkpt>
<trkpt lat="-7.790377" lon="110.368283"><ele>111.9</ele></trkpt>
<trkpt lat="-7.790391" lon="110.368214"><ele>112.7</ele></trkpt>
<trkpt lat="-7.790389" lon="110.368106"><ele>113.9</ele></trkpt>
<trkpt lat="-7.790353" lon="110.368002"><ele>115.1</ele></trkpt>
<trkpt lat="-7.790279" lon="110.367930"><ele>115.8</ele></trkpt>
<trkpt lat="-7.790263" lon="110.367905"><ele>115.9</ele></trkpt>
<trkpt lat="-7.790161" lon="110.367670"><ele>116.3</ele></trkpt>
<trkpt lat="-7.790148" lon="110.367602"><ele>116.4</ele></trkpt>
<trkpt lat="-7.790135" lon="110.367377"><ele>116.6</ele></trkpt>
<trkpt lat="-7.790099" lon="110.366736"><ele>117.2</ele></trkpt>
<trkpt lat="-7.790119" lon="110.366659"><ele>117.3</ele></trkpt>
<trkpt lat="-7.790123" lon="110.366606"><ele>117.3</ele></trkpt>
<trkpt lat="-7.790104" lon="110.366205"><ele>116.3</ele></trkpt>
<trkpt lat="-7.790109" lon="110.366185"><ele>116.3</ele></trkpt>
<trkpt lat="-7.790135" lon="110.366166"><ele>116.5</ele></trkpt>
<trkpt lat="-7.790801" lon="110.366083"><ele>116.1</ele></trkpt>
</trkseg></trk>
</gpx>